{
  "type": "FeatureCollection",
  "features": [
    {
      "type": "Feature",
      "properties": {
        "norad_id": 24946,
        "name": "IRIDIUM 33",
        "group": "iridium-33-debris",
        "lat": 6.140599512082369,
        "lon": -111.99227213143729,
        "alt_km": 772.8224009295973,
        "timestamp": "2025-12-12T07:43:20.899865+00:00",
        "meta_object_name": "IRIDIUM 33",
        "meta_object_id": "1997-051C",
        "meta_epoch": "2025-12-11T12:30:24.203808",
        "meta_mean_motion": 14.35036393,
        "meta_eccentricity": 0.00068891,
        "meta_inclination": 86.387,
        "meta_ra_of_asc_node": 68.7332,
        "meta_arg_of_pericenter": 204.7414,
        "meta_mean_anomaly": 155.3453,
        "meta_ephemeris_type": 0,
        "meta_classification_type": "U",
        "meta_norad_cat_id": 24946,
        "meta_element_set_no": 999,
        "meta_rev_at_epoch": 47817,
        "meta_bstar": 0.00020258749,
        "meta_mean_motion_dot": 5.97e-06,
        "meta_mean_motion_ddot": 0,
        "tle_line1": "1 24946U 97051C   25345.52111347  .00000597  00000+0  20259-3 0  9991",
        "tle_line2": "2 24946  86.3870  68.7332 0006889 204.7414 155.3453 14.35036393478171"
      },
      "geometry": {
        "type": "Point",
        "coordinates": [
          -111.99227213143729,
          6.140599512082369
        ]
      }
    },
    {
      "type": "Feature",
      "properties": {
        "norad_id": 33773,
        "name": "IRIDIUM 33 DEB",
        "group": "iridium-33-debris",
        "lat": 61.39596592214931,
        "lon": -125.86000805015051,
        "alt_km": 734.1750174854724,
        "timestamp": "2025-12-12T07:43:20.899909+00:00",
        "meta_object_name": "IRIDIUM 33 DEB",
        "meta_object_id": "1997-051L",
        "meta_epoch": "2025-12-11T11:12:30.293856",
        "meta_mean_motion": 14.43253357,
        "meta_eccentricity": 0.00123509,
        "meta_inclination": 86.4014,
        "meta_ra_of_asc_node": 61.129,
        "meta_arg_of_pericenter": 150.1569,
        "meta_mean_anomaly": 210.0339,
        "meta_ephemeris_type": 0,
        "meta_classification_type": "U",
        "meta_norad_cat_id": 33773,
        "meta_element_set_no": 999,
        "meta_rev_at_epoch": 88329,
        "meta_bstar": 0.00051200046,
        "meta_mean_motion_dot": 1.743e-05,
        "meta_mean_motion_ddot": 0,
        "tle_line1": "1 33773U 97051L   25345.46701729  .00001743  00000+0  51200-3 0  9995",
        "tle_line2": "2 33773  86.4014  61.1290 0012350 150.1569 210.0339 14.43253357883290"
      },
      "geometry": {
        "type": "Point",
        "coordinates": [
          -125.86000805015051,
          61.39596592214931
        ]
      }
    },
    {
      "type": "Feature",
      "properties": {
        "norad_id": 33775,
        "name": "IRIDIUM 33 DEB",
        "group": "iridium-33-debris",
        "lat": -24.78618697532525,
        "lon": -128.58516856662143,
        "alt_km": 752.6449698985616,
        "timestamp": "2025-12-12T07:43:20.899927+00:00",
        "meta_object_name": "IRIDIUM 33 DEB",
        "meta_object_id": "1997-051N",
        "meta_epoch": "2025-12-11T23:00:29.254752",
        "meta_mean_motion": 14.41466132,
        "meta_eccentricity": 0.00142077,
        "meta_inclination": 86.3638,
        "meta_ra_of_asc_node": 49.8871,
        "meta_arg_of_pericenter": 156.9906,
        "meta_mean_anomaly": 324.5952,
        "meta_ephemeris_type": 0,
        "meta_classification_type": "U",
        "meta_norad_cat_id": 33775,
        "meta_element_set_no": 999,
        "meta_rev_at_epoch": 88129,
        "meta_bstar": 0.0005046638,
        "meta_mean_motion_dot": 1.658e-05,
        "meta_mean_motion_ddot": 0,
        "tle_line1": "1 33775U 97051N   25345.95867193  .00001658  00000+0  50466-3 0  9997",
        "tle_line2": "2 33775  86.3638  49.8871 0014207 156.9906 324.5952 14.41466132881298"
      },
      "geometry": {
        "type": "Point",
        "coordinates": [
          -128.58516856662143,
          -24.78618697532525
        ]
      }
    },
    {
      "type": "Feature",
      "properties": {
        "norad_id": 33776,
        "name": "IRIDIUM 33 DEB",
        "group": "iridium-33-debris",
        "lat": 78.41470850375187,
        "lon": 98.81707181345693,
        "alt_km": 761.0344968431482,
        "timestamp": "2025-12-12T07:43:20.899941+00:00",
        "meta_object_name": "IRIDIUM 33 DEB",
        "meta_object_id": "1997-051P",
        "meta_epoch": "2025-12-11T20:14:11.965056",
        "meta_mean_motion": 14.38232823,
        "meta_eccentricity": 0.00142384,
        "meta_inclination": 86.4036,
        "meta_ra_of_asc_node": 81.1523,
        "meta_arg_of_pericenter": 193.3301,
        "meta_mean_anomaly": 289.5009,
        "meta_ephemeris_type": 0,
        "meta_classification_type": "U",
        "meta_norad_cat_id": 33776,
        "meta_element_set_no": 999,
        "meta_rev_at_epoch": 88069,
        "meta_bstar": 0.00047397129,
        "meta_mean_motion_dot": 1.46e-05,
        "meta_mean_motion_ddot": 0,
        "tle_line1": "1 33776U 97051P   25345.84319404  .00001460  00000+0  47397-3 0  9993",
        "tle_line2": "2 33776  86.4036  81.1523 0014238 193.3301 289.5009 14.38232823880693"
      },
      "geometry": {
        "type": "Point",
        "coordinates": [
          98.81707181345693,
          78.41470850375187
        ]
      }
    },
    {
      "type": "Feature",
      "properties": {
        "norad_id": 33777,
        "name": "IRIDIUM 33 DEB",
        "group": "iridium-33-debris",
        "lat": -20.76900021602789,
        "lon": -143.23855531939057,
        "alt_km": 710.4501965587096,
        "timestamp": "2025-12-12T07:43:20.899954+00:00",
        "meta_object_name": "IRIDIUM 33 DEB",
        "meta_object_id": "1997-051Q",
        "meta_epoch": "2025-12-11T11:00:16.115904",
        "meta_mean_motion": 14.5560175,
        "meta_eccentricity": 0.00050951,
        "meta_inclination": 86.3785,
        "meta_ra_of_asc_node": 35.7605,
        "meta_arg_of_pericenter": 254.7842,
        "meta_mean_anomaly": 105.2803,
        "meta_ephemeris_type": 0,
        "meta_classification_type": "U",
        "meta_norad_cat_id": 33777,
        "meta_element_set_no": 999,
        "meta_rev_at_epoch": 88515,
        "meta_bstar": 0.0016387013,
        "meta_mean_motion_dot": 7.169e-05,
        "meta_mean_motion_ddot": 0,
        "tle_line1": "1 33777U 97051Q   25345.45851986  .00007169  00000+0  16387-2 0  9993",
        "tle_line2": "2 33777  86.3785  35.7605 0005095 254.7842 105.2803 14.55601750885153"
      },
      "geometry": {
        "type": "Point",
        "coordinates": [
          -143.23855531939057,
          -20.76900021602789
        ]
      }
    },
    {
      "type": "Feature",
      "properties": {
        "norad_id": 33850,
        "name": "IRIDIUM 33 DEB",
        "group": "iridium-33-debris",
        "lat": -4.651638457795915,
        "lon": -149.3421803390593,
        "alt_km": 747.0626770407634,
        "timestamp": "2025-12-12T07:43:20.899966+00:00",
        "meta_object_name": "IRIDIUM 33 DEB",
        "meta_object_id": "1997-051T",
        "meta_epoch": "2025-12-11T21:26:48.153696",
        "meta_mean_motion": 14.42143903,
        "meta_eccentricity": 0.00121318,
        "meta_inclination": 86.3419,
        "meta_ra_of_asc_node": 30.5436,
        "meta_arg_of_pericenter": 163.6453,
        "meta_mean_anomaly": 319.3865,
        "meta_ephemeris_type": 0,
        "meta_classification_type": "U",
        "meta_norad_cat_id": 33850,
        "meta_element_set_no": 999,
        "meta_rev_at_epoch": 88140,
        "meta_bstar": 0.00046864386,
        "meta_mean_motion_dot": 1.562e-05,
        "meta_mean_motion_ddot": 0,
        "tle_line1": "1 33850U 97051T   25345.89361289  .00001562  00000+0  46864-3 0  9990",
        "tle_line2": "2 33850  86.3419  30.5436 0012131 163.6453 319.3865 14.42143903881406"
      },
      "geometry": {
        "type": "Point",
        "coordinates": [
          -149.3421803390593,
          -4.651638457795915
        ]
      }
    },
    {
      "type": "Feature",
      "properties": {
        "norad_id": 33853,
        "name": "IRIDIUM 33 DEB",
        "group": "iridium-33-debris",
        "lat": -84.58474802838465,
        "lon": -57.571492825343306,
        "alt_km": 782.3910145822356,
        "timestamp": "2025-12-12T07:43:20.899979+00:00",
        "meta_object_name": "IRIDIUM 33 DEB",
        "meta_object_id": "1997-051W",
        "meta_epoch": "2025-12-11T23:41:06.382752",
        "meta_mean_motion": 13.99054711,
        "meta_eccentricity": 0.02070301,
        "meta_inclination": 86.0003,
        "meta_ra_of_asc_node": 350.1415,
        "meta_arg_of_pericenter": 238.1458,
        "meta_mean_anomaly": 148.4368,
        "meta_ephemeris_type": 0,
        "meta_classification_type": "U",
        "meta_norad_cat_id": 33853,
        "meta_element_set_no": 999,
        "meta_rev_at_epoch": 85335,
        "meta_bstar": 0.0027295941,
        "meta_mean_motion_dot": 4.759e-05,
        "meta_mean_motion_ddot": 0,
        "tle_line1": "1 33853U 97051W   25345.98687943  .00004759  00000+0  27296-2 0  9999",
        "tle_line2": "2 33853  86.0003 350.1415 0207030 238.1458 148.4368 13.99054711853351"
      },
      "geometry": {
        "type": "Point",
        "coordinates": [
          -57.571492825343306,
          -84.58474802838465
        ]
      }
    }
  ]
}